#aV2006 10 18  0  0   .00000000      96 DD+AD WGS84 FIT  NGA
## 1397 259200.00000000   900.00000000 54026  .0000000000000
+   30     1  2  3  4  5  6  7  8  9 10 11 13 14 15 16 17 18
+         19 20 21 22 23 24 25 26 27 28 29 30 31  0  0  0  0
+          0  0  0  0  0  0  0  0  0  0  0  0  0  0  0  0  0
+          0  0  0  0  0  0  0  0  0  0  0  0  0  0  0  0  0
+          0  0  0  0  0  0  0  0  0  0  0  0  0  0  0  0  0
++         0  0  0  0  0  0  0  0  0  0  0  0  0  0  0  0  0
++         0  0  0  0  0  0  0  0  0  0  0  0  0  0  0  0  0
++         0  0  0  0  0  0  0  0  0  0  0  0  0  0  0  0  0
++         0  0  0  0  0  0  0  0  0  0  0  0  0  0  0  0  0
++         0  0  0  0  0  0  0  0  0  0  0  0  0  0  0  0  0
%c cc cc ccc ccc cccc cccc cccc cccc ccccc ccccc ccccc ccccc
%c cc cc ccc ccc cccc cccc cccc cccc ccccc ccccc ccccc ccccc
%f  0.0000000  0.000000000  0.00000000000  0.000000000000000
%f  0.0000000  0.000000000  0.00000000000  0.000000000000000
%i    0    0    0    0      0      0      0      0         0
%i    0    0    0    0      0      0      0      0         0
/*      NGA, ST. LOUIS,MO.                                  
/*   EPHEMERIS COMPUTED FROM  3 DAYS OF DATA                
/* CCCCCCCCCCCCCCCCCCCCCCCCCCCCCCCCCCCCCCCCCCCCCCCCCCCCCCCCC
/* CCCCCCCCCCCCCCCCCCCCCCCCCCCCCCCCCCCCCCCCCCCCCCCCCCCCCCCCC
*  2006 10 18  4 15   .00000000                                                 
P  1 -14664.506810  18738.719579 -11530.914810     83.219739                    
V  1   3343.602903 -14659.908040 -27658.253623       .022114                    
P  2  20267.403379 -12809.691767  10931.323606     45.840754                    
V  2  14650.476955   -355.238691 -27222.837716       .037177                    
P  3 -11268.486382  22132.749750   8763.651528    306.451917                    
V  3  -1447.610733 -12078.985346  28373.170913       .668187                    
P  4  26258.265742  -5100.514912   -712.034358    325.378275                    
V  4   -215.639904   3025.138237 -31219.934863       .048773                    
P  5  -9434.637116 -21394.222281 -12973.620681    363.776737                    
V  5  13701.583308   8865.067540 -24860.765165       .024090                    
P  6  -9966.808916 -16205.930314  18700.301778    577.480173                    
V  6   7804.933838 -22203.470056 -15294.961682      -.090555                    
P  7 -16645.496752   8393.420227  19287.671460    511.917978                    
V  7   4128.397039 -23530.383336  13963.572681      -.060522                    
P  8  25130.857317   1514.837752   8975.763471    -83.378514                    
V  8 -10913.790900   3931.135507  29017.933281      -.013084                    
P  9   1969.877588 -16100.727449 -21567.558760     40.745463                    
V  9  25355.715527  -6198.413663   7379.340887       .017481                    
P 10   7928.245301 -13184.215908  21517.315602     91.319798                    
V 10  18755.300683  20202.741023   5746.624141       .006712                    
P 11   2317.519357  16765.218523 -20517.359725    355.676318                    
V 11 -24646.291348   8969.006451   4837.496170       .017822                    
P 13   8763.950256  14915.119533  20076.263102    104.289598                    
V 13  -8916.144459  24006.937191 -13841.841115       .035075                    
P 14 -15701.319577   3409.532581 -21058.538733     -3.227583                    
V 14   7628.899572 -25759.457344  -9893.428415       .008239                    
P 15 -25630.945163  -1429.828170   7503.798371    -22.632950                    
V 15   9113.029177  -3927.266376  29417.094350      -.139671                    
P 16 -10880.202326  10642.624377  21842.461439     83.110649                    
V 16 -18640.914403 -20282.775802    719.650292       .035447                    
P 17  16159.054586  -2851.120603 -20870.617469     92.501101                    
V 17  -7012.369774  25581.527902  -9030.378572      -.011851                    
P 18 -19599.617440 -17428.727474  -5053.984247   -251.137809                    
V 18  -2232.624038  -6672.047767  30573.171221      -.007057                    
P 19  -7910.774602  25217.700397  -2052.744296     25.379453                    
V 19  -3732.848958   1523.162843  31610.833651       .035495                    
P 20  11739.941535  21956.761969  -9377.976930    -22.029694                    
V 20 -10047.358777  -6706.931940 -28516.260405       .001048                    
P 21 -21466.010975  -6690.143280  14640.328872     57.610439                    
V 21  17533.748021  -5566.774553  22757.567988       .016330                    
P 22 -20206.692716  -6628.779207 -15765.430780    142.691011                    
V 22 -11468.415639 -16913.869456  21564.098850       .029239                    
P 23   1763.786019  23293.821900  12369.976821    138.921196                    
V 23  -6794.043796  14551.301812 -26436.386715       .004878                    
P 24  26106.949966  -5647.738949   1418.239063     44.917340                    
V 24   1966.644774   2312.167389 -31430.517494       .032350                    
P 25 -23555.938713  11558.466927   5009.874227    383.877808                    
V 25  -6401.319773   -741.349369 -30702.886177       .133623                    
P 26   7418.423873 -25145.285444  -1581.423356   -298.005635                    
V 26   2675.968063   -718.483324  32728.708965      -.156343                    
P 27  19047.255584   7318.105152  17776.367791     73.384043                    
V 27 -19999.220475   7331.086479  18783.200582       .019655                    
P 28  21017.781801  10294.077458 -12587.338465     16.303917                    
V 28   9293.069678  13598.579758  25679.199302      -.008873                    
P 29   9650.770442 -24355.122150   3412.044794     86.393191                    
V 29    903.176800   4526.417104  32168.743212       .498926                    
P 30 -18011.849577 -19564.650542  -1560.398289     13.507079                    
V 30   3412.905343  -1124.026318 -31242.563160       .011583                    
P 31 -24879.324263   8617.867882   3829.124739    -72.244344                    
V 31  -5141.339487  -1648.550104 -31198.079270       .134825                    
EOF
